[{"OBJECT_NAME":"KOSEN-1","OBJECT_ID":"2021-102H","EPOCH":"2026-03-09T22:29:54.100608","MEAN_MOTION":15.25323573,"ECCENTRICITY":0.00138659,"INCLINATION":97.3334,"RA_OF_ASC_NODE":113.0569,"ARG_OF_PERICENTER":191.9191,"MEAN_ANOMALY":168.1721,"EPHEMERIS_TYPE":0,"CLASSIFICATION_TYPE":"U","NORAD_CAT_ID":49402,"ELEMENT_SET_NO":999,"REV_AT_EPOCH":23888,"BSTAR":0.00040411561,"MEAN_MOTION_DOT":0.00010142,"MEAN_MOTION_DDOT":0},{"OBJECT_NAME":"STARLINK-30358","OBJECT_ID":"2023-144R","EPOCH":"2026-03-08T23:42:47.774880","MEAN_MOTION":15.27573323,"ECCENTRICITY":0.00017141,"INCLINATION":43.0019,"RA_OF_ASC_NODE":288.8588,"ARG_OF_PERICENTER":277.1057,"MEAN_ANOMALY":82.96,"EPHEMERIS_TYPE":0,"CLASSIFICATION_TYPE":"U","NORAD_CAT_ID":57879,"ELEMENT_SET_NO":999,"REV_AT_EPOCH":13753,"BSTAR":-0.00010012835,"MEAN_MOTION_DOT":-3.016e-5,"MEAN_MOTION_DDOT":0}]
